OBJECT_NAME,OBJECT_ID,EPOCH,MEAN_MOTION,ECCENTRICITY,INCLINATION,RA_OF_ASC_NODE,ARG_OF_PERICENTER,MEAN_ANOMALY,EPHEMERIS_TYPE,CLASSIFICATION_TYPE,NORAD_CAT_ID,ELEMENT_SET_NO,REV_AT_EPOCH,BSTAR,MEAN_MOTION_DOT,MEAN_MOTION_DDOT
ONEWEB-0303,2021-083B,2026-06-09T00:47:56.224032,13.18686487,.0001984,87.9162,337.0791,88.7756,271.3603,0,U,49187,999,22890,.19971E-4,.21E-6,0
ONEWEB-0306,2021-083C,2026-06-09T00:33:21.818016,13.18686516,.0001659,87.9168,337.0686,95.7693,264.3629,0,U,49188,999,22894,.17806E-5,.14E-6,0
ONEWEB-0307,2021-083D,2026-06-09T03:51:49.211136,13.13470019,.0001925,87.8949,321.8337,94.0085,266.1264,0,U,49189,999,22987,-.5842E-3,-.201E-5,0
ONEWEB-0320,2021-083E,2026-06-09T01:02:29.137056,13.18685648,.0001799,87.9158,337.0835,91.6443,268.4896,0,U,49190,999,22890,-.10088E-3,-.27E-6,0
ONEWEB-0321,2021-083F,2026-06-09T00:27:48.930048,13.20771913,.0001703,87.9188,276.0627,105.2532,254.8790,0,U,49191,999,23575,.96146E-5,.17E-6,0
ONEWEB-0322,2021-083G,2026-06-09T03:45:43.364160,13.13469587,.0001362,87.8947,321.8351,92.2090,267.9195,0,U,49192,999,22986,-.31246E-3,-.101E-5,0
ONEWEB-0324,2021-083H,2026-06-09T00:23:37.887072,13.18684438,.0001885,87.9168,337.0753,96.7636,263.3710,0,U,49193,999,22892,-.19048E-5,.12E-6,0
ONEWEB-0325,2021-083J,2026-06-09T00:28:29.938944,13.18684971,.0001827,87.9160,337.0839,88.4318,271.7023,0,U,49194,999,22893,-.81801E-4,-.19E-6,0
ONEWEB-0326,2021-083K,2026-06-09T00:50:32.981280,13.18684880,.000206,87.9167,337.0777,85.9387,274.1980,0,U,49195,999,22892,.58244E-4,.36E-6,0
ONEWEB-0327,2021-083L,2026-06-09T00:50:08.708064,13.18685511,.0002086,87.9159,337.0828,81.0085,279.1283,0,U,49196,999,22894,-.612E-3,-.228E-5,0
ONEWEB-0328,2021-083M,2026-06-09T03:31:05.941056,13.13469294,.0001879,87.8957,321.8097,98.3957,261.7386,0,U,49197,999,22984,.32396E-3,.131E-5,0
ONEWEB-0331,2021-083N,2026-06-09T00:40:38.995104,13.18685553,.0002144,87.9168,337.0728,88.2414,271.8964,0,U,49198,999,22893,-.35995E-4,-.1E-7,0
ONEWEB-0333,2021-083P,2026-06-09T03:23:47.092992,13.13469204,.0001808,87.8947,321.8378,92.7398,267.3938,0,U,49199,999,22985,.6042E-3,.233E-5,0
ONEWEB-0334,2021-083Q,2026-06-08T21:15:04.644288,13.20772681,.0001028,87.9187,276.1014,110.7001,249.4243,0,U,49200,999,23569,.21136E-3,.99E-6,0
ONEWEB-0335,2021-083R,2026-06-08T23:37:05.395872,13.13469829,.0002002,87.8949,321.8660,93.1828,266.9531,0,U,49201,999,22984,.78096E-3,.298E-5,0
ONEWEB-0336,2021-083S,2026-06-08T21:05:56.457024,13.13470362,.0002232,87.8944,321.8828,94.5744,265.5640,0,U,49202,999,22982,-.39093E-4,-.2E-7,0
ONEWEB-0337,2021-083T,2026-06-08T23:10:04.474848,13.13469860,.0001968,87.8943,321.8719,98.4288,261.7065,0,U,49203,999,22983,.57121E-3,.221E-5,0
ONEWEB-0338,2021-083U,2026-06-09T02:04:48.965376,13.20742638,.0001479,87.9179,276.0639,101.3936,258.7363,0,U,49204,999,23574,-.77449E-2,-.3134E-4,0
ONEWEB-0339,2021-083V,2026-06-08T23:22:27.325632,13.13470038,.0001548,87.8946,321.8624,99.2409,260.8895,0,U,49205,999,22981,.83993E-3,.319E-5,0
ONEWEB-0340,2021-083W,2026-06-09T00:21:12.830112,13.18685067,.0001863,87.9168,337.0813,146.0195,214.1057,0,U,49206,999,22889,-.74417E-3,-.28E-5,0
ONEWEB-0341,2021-083X,2026-06-09T00:30:56.327328,13.18685848,.000208,87.9163,337.0838,104.1809,255.9554,0,U,49207,999,22891,.12224E-3,.61E-6,0
ONEWEB-0342,2021-083Y,2026-06-09T00:25:22.592640,13.20770735,.0001873,87.9189,276.0648,102.5902,257.5441,0,U,49208,999,23570,.32357E-4,.26E-6,0
ONEWEB-0343,2021-083Z,2026-06-09T00:43:05.200320,13.18686242,.0001477,87.9165,337.0805,99.4040,260.7259,0,U,49209,999,22896,-.43101E-5,.11E-6,0
ONEWEB-0344,2021-083AA,2026-06-08T23:15:08.557056,13.13471934,.0002017,87.8936,321.8784,104.5560,255.5793,0,U,49210,999,22981,.67109E-3,.258E-5,0
ONEWEB-0345,2021-083AB,2026-06-08T23:02:56.799168,13.13470915,.0001978,87.8955,321.8597,103.5530,256.5820,0,U,49211,999,22982,.23654E-3,.99E-6,0
ONEWEB-0346,2021-083AC,2026-06-09T00:38:13.386912,13.18685497,.0002438,87.9158,337.0820,84.0165,276.1245,0,U,49212,999,22890,.53096E-4,.34E-6,0
ONEWEB-0348,2021-083AD,2026-06-08T20:32:38.819040,13.20770030,.0002481,87.9193,276.1010,101.1117,259.0296,0,U,49213,999,23571,-.24846E-3,-.88E-6,0
ONEWEB-0350,2021-083AE,2026-06-08T23:22:11.498016,13.12942731,.0002008,87.8953,321.8603,100.2503,259.8853,0,U,49214,999,22985,.10463E-2,.392E-5,0
ONEWEB-0351,2021-083AF,2026-06-09T01:50:00.310272,13.20769877,.0001676,87.9193,276.0556,127.2517,232.8770,0,U,49215,999,23570,.47585E-5,.15E-6,0
ONEWEB-0352,2021-083AG,2026-06-08T20:58:37.792128,13.13470743,.0001483,87.8948,321.8886,104.5435,255.5858,0,U,49216,999,22993,-.48321E-3,-.164E-5,0
