ONEWEB-0303             
1 49187U 21083B   26160.03328963  .00000021  00000+0  19971-4 0  9995
2 49187  87.9162 337.0791 0001984  88.7756 271.3603 13.18686487228902
ONEWEB-0306             
1 49188U 21083C   26160.02316919  .00000014  00000+0  17806-5 0  9991
2 49188  87.9168 337.0686 0001659  95.7693 264.3629 13.18686516228946
ONEWEB-0307             
1 49189U 21083D   26160.16098624 -.00000201  00000+0 -58420-3 0  9992
2 49189  87.8949 321.8337 0001925  94.0085 266.1264 13.13470019229872
ONEWEB-0320             
1 49190U 21083E   26160.04339279 -.00000027  00000+0 -10088-3 0  9999
2 49190  87.9158 337.0835 0001799  91.6443 268.4896 13.18685648228909
ONEWEB-0321             
1 49191U 21083F   26160.01931632  .00000017  00000+0  96146-5 0  9996
2 49191  87.9188 276.0627 0001703 105.2532 254.8790 13.20771913235757
ONEWEB-0322             
1 49192U 21083G   26160.15675190 -.00000101  00000+0 -31246-3 0  9990
2 49192  87.8947 321.8351 0001362  92.2090 267.9195 13.13469587229860
ONEWEB-0324             
1 49193U 21083H   26160.01641073  .00000012  00000+0 -19048-5 0  9997
2 49193  87.9168 337.0753 0001885  96.7636 263.3710 13.18684438228925
ONEWEB-0325             
1 49194U 21083J   26160.01979096 -.00000019  00000+0 -81801-4 0  9990
2 49194  87.9160 337.0839 0001827  88.4318 271.7023 13.18684971228937
ONEWEB-0326             
1 49195U 21083K   26160.03510395  .00000036  00000+0  58244-4 0  9998
2 49195  87.9167 337.0777 0002060  85.9387 274.1980 13.18684880228921
ONEWEB-0327             
1 49196U 21083L   26160.03482301 -.00000228  00000+0 -61200-3 0  9994
2 49196  87.9159 337.0828 0002086  81.0085 279.1283 13.18685511228945
ONEWEB-0328             
1 49197U 21083M   26160.14659654  .00000131  00000+0  32396-3 0  9999
2 49197  87.8957 321.8097 0001879  98.3957 261.7386 13.13469294229842
ONEWEB-0331             
1 49198U 21083N   26160.02822911 -.00000001  00000+0 -35995-4 0  9992
2 49198  87.9168 337.0728 0002144  88.2414 271.8964 13.18685553228936
ONEWEB-0333             
1 49199U 21083P   26160.14151728  .00000233  00000+0  60420-3 0  9992
2 49199  87.8947 321.8378 0001808  92.7398 267.3938 13.13469204229851
ONEWEB-0334             
1 49200U 21083Q   26159.88547042  .00000099  00000+0  21136-3 0  9993
2 49200  87.9187 276.1014 0001028 110.7001 249.4243 13.20772681235699
ONEWEB-0335             
1 49201U 21083R   26159.98409023  .00000298  00000+0  78096-3 0  9999
2 49201  87.8949 321.8660 0002002  93.1828 266.9531 13.13469829229847
ONEWEB-0336             
1 49202U 21083S   26159.87912566 -.00000002  00000+0 -39093-4 0  9999
2 49202  87.8944 321.8828 0002232  94.5744 265.5640 13.13470362229824
ONEWEB-0337             
1 49203U 21083T   26159.96532957  .00000221  00000+0  57121-3 0  9994
2 49203  87.8943 321.8719 0001968  98.4288 261.7065 13.13469860229835
ONEWEB-0338             
1 49204U 21083U   26160.08667784 -.00003134  00000+0 -77449-2 0  9999
2 49204  87.9179 276.0639 0001479 101.3936 258.7363 13.20742638235740
ONEWEB-0339             
1 49205U 21083V   26159.97392738  .00000319  00000+0  83993-3 0  9992
2 49205  87.8946 321.8624 0001548  99.2409 260.8895 13.13470038229811
ONEWEB-0340             
1 49206U 21083W   26160.01473183 -.00000280  00000+0 -74417-3 0  9994
2 49206  87.9168 337.0813 0001863 146.0195 214.1057 13.18685067228895
ONEWEB-0341             
1 49207U 21083X   26160.02148527  .00000061  00000+0  12224-3 0  9990
2 49207  87.9163 337.0838 0002080 104.1809 255.9554 13.18685848228912
ONEWEB-0342             
1 49208U 21083Y   26160.01762260  .00000026  00000+0  32357-4 0  9997
2 49208  87.9189 276.0648 0001873 102.5902 257.5441 13.20770735235708
ONEWEB-0343             
1 49209U 21083Z   26160.02992130  .00000011  00000+0 -43101-5 0  9995
2 49209  87.9165 337.0805 0001477  99.4040 260.7259 13.18686242228962
ONEWEB-0344             
1 49210U 21083AA  26159.96884904  .00000258  00000+0  67109-3 0  9991
2 49210  87.8936 321.8784 0002017 104.5560 255.5793 13.13471934229817
ONEWEB-0345             
1 49211U 21083AB  26159.96037962  .00000099  00000+0  23654-3 0  9996
2 49211  87.8955 321.8597 0001978 103.5530 256.5820 13.13470915229823
ONEWEB-0346             
1 49212U 21083AC  26160.02654383  .00000034  00000+0  53096-4 0  9991
2 49212  87.9158 337.0820 0002438  84.0165 276.1245 13.18685497228902
ONEWEB-0348             
1 49213U 21083AD  26159.85600485 -.00000088  00000+0 -24846-3 0  9996
2 49213  87.9193 276.1010 0002481 101.1117 259.0296 13.20770030235716
ONEWEB-0350             
1 49214U 21083AE  26159.97374419  .00000392  00000+0  10463-2 0  9990
2 49214  87.8953 321.8603 0002008 100.2503 259.8853 13.12942731229855
ONEWEB-0351             
1 49215U 21083AF  26160.07639248  .00000015  00000+0  47585-5 0  9998
2 49215  87.9193 276.0556 0001676 127.2517 232.8770 13.20769877235702
ONEWEB-0352             
1 49216U 21083AG  26159.87404852 -.00000164  00000+0 -48321-3 0  9990
2 49216  87.8948 321.8886 0001483 104.5435 255.5858 13.13470743229938
